      2.10          N: GNSS NAV DATA                        RINEX VERSION / TYPE
fic2rin                                 10/07/2019 00:19:27 PGM / RUN BY / DATE
                                                            END OF HEADER
31 19 10  6 16  0  0.0 5.487352609634e-06-2.614797267597e-12 0.000000000000e+00
    6.700000000000e+01 2.384375000000e+01 4.581976572002e-09 2.835442684483e+00
    1.145526766777e-06 9.418302099220e-03 7.405877113342e-06 5.153706249237e+03
    5.760000000000e+04-9.685754776001e-08-2.194406135881e+00 3.725290298462e-08
    9.590337798350e-01 2.390000000000e+02 3.616300283708e-02-7.929258856887e-09
   -3.035840740667e-10 1.000000000000e+00 2.074000000000e+03 0.000000000000e+00
    2.400000000000e+00 0.000000000000e+00-1.350417733192e-08 6.700000000000e+01
    5.040000000000e+04 4.000000000000e+00
29 19 10  6 16  0  0.0 7.849186658859e-05-1.011812855722e-11 0.000000000000e+00
    3.500000000000e+01 2.356250000000e+01 3.926949287486e-09-1.160040903674e-01
    1.024454832077e-06 1.163931912743e-03 5.092471837997e-06 5.153687311172e+03
    5.760000000000e+04 1.490116119385e-08-6.141901951441e-02 2.607703208923e-08
    9.860458248579e-01 2.920000000000e+02 2.032684903177e+00-7.939616431179e-09
    1.935794919343e-10 1.000000000000e+00 2.074000000000e+03 0.000000000000e+00
    2.400000000000e+00 0.000000000000e+00-9.778887033463e-09 3.500000000000e+01
    5.040000000000e+04 4.000000000000e+00
30 19 10  6 16  0  0.0-5.586957558990e-05-8.071765478235e-12 0.000000000000e+00
    7.100000000000e+01 1.853125000000e+01 5.092354974168e-09 3.079919471077e+00
    8.568167686462e-07 4.179284092970e-03 7.057562470436e-06 5.153742731094e+03
    5.760000000000e+04-2.793967723846e-08-2.182808390525e+00-4.284083843231e-08
    9.399235624691e-01 2.320000000000e+02-2.896992807790e+00-8.219270937054e-09
   -3.221562762449e-10 1.000000000000e+00 2.074000000000e+03 0.000000000000e+00
    2.400000000000e+00 0.000000000000e+00 3.725290298462e-09 7.100000000000e+01
    5.040000000000e+04 4.000000000000e+00
26 19 10  6 16  0  0.0 5.543092265725e-05 8.640199666843e-12 0.000000000000e+00
    6.300000000000e+01 4.662500000000e+01 4.593048461762e-09 1.589151466309e+00
    2.481043338776e-06 3.982754074968e-03 7.439404726028e-06 5.153682235718e+03
    5.760000000000e+04-1.862645149231e-08-1.203130517867e+00 2.980232238770e-08
    9.496174340521e-01 2.304687500000e+02 1.182911389579e-01-8.109980670390e-09
   -2.010798043524e-10 1.000000000000e+00 2.074000000000e+03 0.000000000000e+00
    2.400000000000e+00 0.000000000000e+00 7.450580596924e-09 6.300000000000e+01
    5.040000000000e+04 4.000000000000e+00
28 19 10  6 16  0  0.0 7.599587552249e-04-1.250555214938e-12 0.000000000000e+00
    5.800000000000e+01 4.918750000000e+01 3.960522114500e-09 4.797551597738e-01
    2.540647983551e-06 1.911217765883e-02 8.797273039818e-06 5.153710697174e+03
    5.760000000000e+04-2.030283212662e-07-1.083349543137e+00-1.918524503708e-07
    9.803556338272e-01 2.233125000000e+02-1.453126805136e+00-8.133553080847e-09
   -1.839362331110e-10 1.000000000000e+00 2.074000000000e+03 0.000000000000e+00
    2.400000000000e+00 0.000000000000e+00-1.117587089539e-08 5.800000000000e+01
    5.040000000000e+04 4.000000000000e+00
27 19 10  6 15 59 44.0-7.890071719885e-05-1.227817847393e-11 0.000000000000e+00
    1.600000000000e+01 2.818750000000e+01 4.176959701423e-09-3.139399932494e-01
    1.581385731697e-06 7.232346688397e-03 4.876405000687e-06 5.153655906677e+03
    5.758400000000e+04 1.098960638046e-07-1.297015503388e-01 1.303851604462e-08
    9.788519134998e-01 2.966875000000e+02 5.112215460408e-01-8.160339910912e-09
    1.839362331110e-10 1.000000000000e+00 2.074000000000e+03 0.000000000000e+00
    2.400000000000e+00 0.000000000000e+00 1.396983861923e-09 1.600000000000e+01
    5.286000000000e+04 4.000000000000e+00
 4 19 10  6 16  0  0.0-1.821015030146e-05-4.354205884738e-11 0.000000000000e+00
    8.300000000000e+01 3.518750000000e+01 4.676980529298e-09-2.053568181643e-01
    2.030283212662e-06 1.475925289560e-02 5.099922418594e-06 5.153678131104e+03
    5.760000000000e+04 1.434236764908e-07-2.334313381636e-01 1.415610313416e-07
    9.589685497807e-01 2.831250000000e+02 6.845347836100e-01-8.502139862538e-09
    1.792931825664e-10 1.000000000000e+00 2.074000000000e+03 0.000000000000e+00
    3.400000000000e+00 6.300000000000e+01-5.587935447693e-09 8.300000000000e+01
    5.421000000000e+04 4.000000000000e+00
27 19 10  6 17 59 44.0-7.898919284344e-05-1.227817847393e-11 0.000000000000e+00
    1.700000000000e+01 3.165625000000e+01 4.067312277025e-09 7.361763082182e-01
    1.620501279831e-06 7.232645992190e-03 5.153939127922e-06 5.153656692505e+03
    6.478400000000e+04-9.313225746155e-09-1.297593297512e-01 1.378357410431e-07
    9.788533325303e-01 2.903125000000e+02 5.112942457548e-01-8.047120909172e-09
    9.321816862518e-11 1.000000000000e+00 2.074000000000e+03 0.000000000000e+00
    2.400000000000e+00 0.000000000000e+00 1.396983861923e-09 1.700000000000e+01
    5.760000000000e+04 4.000000000000e+00
 1 19 10  6 18  0  0.0-1.533180475235e-04-1.330136001343e-11 0.000000000000e+00
    9.000000000000e+00-5.909375000000e+01 4.274106605125e-09-1.453046166165e+00
   -3.052875399590e-06 9.112377651036e-03 5.099922418594e-06 5.153645309448e+03
    6.480000000000e+04 1.639127731323e-07 9.252586060148e-01-3.166496753693e-08
    9.770992410882e-01 2.858125000000e+02 7.671433127696e-01-7.998547457321e-09
    1.142904749427e-10 1.000000000000e+00 2.074000000000e+03 0.000000000000e+00
    2.400000000000e+00 0.000000000000e+00 5.587935447693e-09 9.000000000000e+00
    5.760000000000e+04 4.000000000000e+00
 2 19 10  6 18  0  0.0-3.203367814422e-04-7.958078640513e-12 0.000000000000e+00
    4.100000000000e+01-5.343750000000e+01 4.888417907942e-09-1.169644216239e+00
   -2.300366759300e-06 1.919908833224e-02 4.630535840988e-06 5.153548452377e+03
    6.480000000000e+04-1.247972249985e-07 8.537945341180e-01 4.824250936508e-07
    9.562195628630e-01 2.907812500000e+02-1.711080709905e+00-8.504282808943e-09
    5.857386840816e-11 1.000000000000e+00 2.074000000000e+03 0.000000000000e+00
    2.400000000000e+00 0.000000000000e+00-2.048909664154e-08 4.100000000000e+01
    5.760000000000e+04 4.000000000000e+00
 5 19 10  6 18  0  0.0-2.070795744658e-06-3.410605131648e-13 0.000000000000e+00
    1.400000000000e+01-6.818750000000e+01 4.819129307508e-09 1.409377425130e+00
   -3.362074494362e-06 5.900497199036e-03 9.378418326378e-06 5.153779346466e+03
    6.480000000000e+04-1.024454832077e-07 1.938733681114e+00 1.192092895508e-07
    9.505349674939e-01 1.959375000000e+02 7.976397902018e-01-8.143196339671e-09
    1.132190017402e-10 1.000000000000e+00 2.074000000000e+03 0.000000000000e+00
    2.400000000000e+00 0.000000000000e+00-1.117587089539e-08 1.400000000000e+01
    5.760000000000e+04 4.000000000000e+00
 3 19 10  6 18  0  0.0-1.912843436003e-05-4.547473508865e-12 0.000000000000e+00
    8.400000000000e+01-5.450000000000e+01 4.446256633007e-09-2.591358044784e+00
   -2.849847078323e-06 2.553023863584e-03 9.579584002495e-06 5.153701728821e+03
    6.480000000000e+04 1.676380634308e-08 1.967402300923e+00-7.078051567078e-08
    9.636675275006e-01 1.946562500000e+02 7.656948161368e-01-7.917115493925e-09
    1.814361289716e-10 1.000000000000e+00 2.074000000000e+03 0.000000000000e+00
    2.400000000000e+00 0.000000000000e+00 1.862645149231e-09 8.400000000000e+01
    5.760000000000e+04 4.000000000000e+00
 7 19 10  6 18  0  0.0-1.215049996972e-04-7.958078640513e-12 0.000000000000e+00
    4.100000000000e+01 2.425000000000e+01 4.702338728426e-09-2.103717774118e+00
    1.126900315285e-06 1.316934113856e-02 6.925314664841e-06 5.153725713730e+03
    6.480000000000e+04 1.303851604462e-07-2.209066194485e+00-1.173466444016e-07
    9.545329953307e-01 2.418125000000e+02-2.425895649251e+00-7.919258440330e-09
   -1.782217093638e-10 1.000000000000e+00 2.074000000000e+03 0.000000000000e+00
    2.400000000000e+00 0.000000000000e+00-1.117587089539e-08 4.100000000000e+01
    5.760000000000e+04 4.000000000000e+00
15 19 10  6 18  0  0.0-2.817972563207e-04 2.728484105319e-12 0.000000000000e+00
    1.000000000000e+01 1.109375000000e+01 5.552016978078e-09-1.561731495357e-01
    7.133930921555e-07 1.181443594396e-02 7.860362529755e-06 5.153572219849e+03
    6.480000000000e+04-7.450580596924e-09 2.915640506050e+00 1.192092895508e-07
    9.284350371145e-01 2.086250000000e+02 8.184813491706e-01-8.605001289986e-09
    1.071473202588e-10 1.000000000000e+00 2.074000000000e+03 0.000000000000e+00
    2.400000000000e+00 0.000000000000e+00-1.071020960808e-08 1.000000000000e+01
    5.760000000000e+04 4.000000000000e+00
16 19 10  6 18  0  0.0-8.079735562205e-05-3.524291969370e-12 0.000000000000e+00
    4.200000000000e+01 4.331250000000e+01 3.867661103609e-09 1.695626179991e+00
    2.289190888405e-06 1.082495052833e-02 8.145347237587e-06 5.153652223587e+03
    6.480000000000e+04-1.695007085800e-07-1.087288223313e+00 6.146728992462e-08
    9.813782984139e-01 2.372187500000e+02 5.789904404759e-01-7.826397429439e-09
   -2.282237921513e-10 1.000000000000e+00 2.074000000000e+03 0.000000000000e+00
    2.400000000000e+00 0.000000000000e+00-1.071020960808e-08 4.200000000000e+01
    5.760000000000e+04 4.000000000000e+00
 8 19 10  6 18  0  0.0-8.988194167614e-06-1.364242052659e-12 0.000000000000e+00
    2.400000000000e+01 2.706250000000e+01 4.245533986389e-09 9.306289300075e-01
    1.480802893639e-06 4.502911702730e-03 4.900619387627e-06 5.153566677094e+03
    6.480000000000e+04 1.396983861923e-07-1.421566183538e-01 4.097819328308e-08
    9.705124758430e-01 2.892187500000e+02-2.324780817252e-01-8.087836890870e-09
    1.457203555520e-10 1.000000000000e+00 2.074000000000e+03 0.000000000000e+00
    2.400000000000e+00 0.000000000000e+00 5.122274160385e-09 2.400000000000e+01
    5.760000000000e+04 4.000000000000e+00
